{
    "links": {
        "self": "http://www.neowsapp.com/rest/v1/neo/3529587?api_key=iIulBulltgU6a56xZRHN4H3l9WmuAYTsLGpBGhQ2"
    },
    "id": "3529587",
    "neo_reference_id": "3529587",
    "name": "(2010 LJ61)",
    "designation": "2010 LJ61",
    "nasa_jpl_url": "http://ssd.jpl.nasa.gov/sbdb.cgi?sstr=3529587",
    "absolute_magnitude_h": 20.9,
    "estimated_diameter": {
        "kilometers": {
            "estimated_diameter_min": 0.1756123185,
            "estimated_diameter_max": 0.3926810818
        },
        "meters": {
            "estimated_diameter_min": 175.6123184804,
            "estimated_diameter_max": 392.6810818086
        },
        "miles": {
            "estimated_diameter_min": 0.1091204019,
            "estimated_diameter_max": 0.2440006365
        },
        "feet": {
            "estimated_diameter_min": 576.1559189633,
            "estimated_diameter_max": 1288.3238004408
        }
    },
    "is_potentially_hazardous_asteroid": false,
    "close_approach_data": [
        {
            "close_approach_date": "2010-05-25",
            "close_approach_date_full": "2010-May-25 08:30",
            "epoch_date_close_approach": 1274776200000,
            "relative_velocity": {
                "kilometers_per_second": "22.5786476919",
                "kilometers_per_hour": "81283.1316907082",
                "miles_per_hour": "50506.1770219292"
            },
            "miss_distance": {
                "astronomical": "0.270910659",
                "lunar": "105.384246351",
                "kilometers": "40527657.54669633",
                "miles": "25182718.661336154"
            },
            "orbiting_body": "Earth"
        },
        {
            "close_approach_date": "2057-09-02",
            "close_approach_date_full": "2057-Sep-02 20:09",
            "epoch_date_close_approach": 2766686940000,
            "relative_velocity": {
                "kilometers_per_second": "10.2408507763",
                "kilometers_per_hour": "36867.0627947408",
                "miles_per_hour": "22907.7591015433"
            },
            "miss_distance": {
                "astronomical": "0.4729110692",
                "lunar": "183.9624059188",
                "kilometers": "70746488.651742604",
                "miles": "43959829.6038077752"
            },
            "orbiting_body": "Earth"
        }
    ],
    "orbital_data": {
        "orbit_id": "13",
        "orbit_determination_date": "2018-10-15 06:57:49",
        "first_observation_date": "2010-06-08",
        "last_observation_date": "2010-06-18",
        "data_arc_in_days": 10,
        "observations_used": 46,
        "orbit_uncertainty": "9",
        "minimum_orbit_intersection": ".0537553",
        "jupiter_tisserand_invariant": "5.638",
        "epoch_osculation": "2455362.5",
        "eccentricity": ".4729439988644051",
        "semi_major_axis": "1.072691072834594",
        "inclination": "10.18953399834677",
        "ascending_node_longitude": "70.3280423367497",
        "orbital_period": "405.7984897412882",
        "perihelion_distance": ".5653682673020526",
        "perihelion_argument": "49.88561577666741",
        "aphelion_distance": "1.580013878367136",
        "perihelion_time": "2455282.528325250940",
        "mean_anomaly": "70.94605731040592",
        "mean_motion": ".8871398221060743",
        "equinox": "J2000",
        "orbit_class": {
            "orbit_class_type": "APO",
            "orbit_class_description": "Near-Earth asteroid orbits which cross the Earth’s orbit similar to that of 1862 Apollo",
            "orbit_class_range": "a (semi-major axis) > 1.0 AU; q (perihelion) < 1.017 AU"
        }
    },
    "is_sentry_object": false
}